[{"OBJECT_NAME":"CBERS 4","OBJECT_ID":"2014-079A","EPOCH":"2026-03-09T23:48:34.091136","MEAN_MOTION":14.35413289,"ECCENTRICITY":6.249e-5,"INCLINATION":98.3477,"RA_OF_ASC_NODE":128.9942,"ARG_OF_PERICENTER":63.727,"MEAN_ANOMALY":296.398,"EPHEMERIS_TYPE":0,"CLASSIFICATION_TYPE":"U","NORAD_CAT_ID":40336,"ELEMENT_SET_NO":999,"REV_AT_EPOCH":58972,"BSTAR":4.6050106e-5,"MEAN_MOTION_DOT":9.0e-7,"MEAN_MOTION_DDOT":0},{"OBJECT_NAME":"FENGYUN 1C DEB","OBJECT_ID":"1999-025XL","EPOCH":"2026-03-09T13:10:43.262112","MEAN_MOTION":14.2956242,"ECCENTRICITY":0.00524644,"INCLINATION":99.048,"RA_OF_ASC_NODE":275.2033,"ARG_OF_PERICENTER":78.2085,"MEAN_ANOMALY":347.4386,"EPHEMERIS_TYPE":0,"CLASSIFICATION_TYPE":"U","NORAD_CAT_ID":30251,"ELEMENT_SET_NO":999,"REV_AT_EPOCH":99382,"BSTAR":0.00049295702,"MEAN_MOTION_DOT":1.233e-5,"MEAN_MOTION_DDOT":0}]
